[{"OBJECT_NAME":"STARLINK-36543","OBJECT_ID":"2026-012Y","EPOCH":"2026-03-09T23:06:20.124288","MEAN_MOTION":15.27583112,"ECCENTRICITY":7.498e-5,"INCLINATION":42.9985,"RA_OF_ASC_NODE":312.8495,"ARG_OF_PERICENTER":251.8821,"MEAN_ANOMALY":108.1949,"EPHEMERIS_TYPE":0,"CLASSIFICATION_TYPE":"U","NORAD_CAT_ID":67515,"ELEMENT_SET_NO":999,"REV_AT_EPOCH":780,"BSTAR":0.00090729604,"MEAN_MOTION_DOT":0.00024791,"MEAN_MOTION_DDOT":0},{"OBJECT_NAME":"CZ-4B DEB","OBJECT_ID":"2008-053J","EPOCH":"2026-03-09T11:59:22.469568","MEAN_MOTION":15.1637526,"ECCENTRICITY":0.00601661,"INCLINATION":97.7872,"RA_OF_ASC_NODE":170.5072,"ARG_OF_PERICENTER":304.792,"MEAN_ANOMALY":54.7659,"EPHEMERIS_TYPE":0,"CLASSIFICATION_TYPE":"U","NORAD_CAT_ID":35573,"ELEMENT_SET_NO":999,"REV_AT_EPOCH":91868,"BSTAR":0.0017688276,"MEAN_MOTION_DOT":0.00036031,"MEAN_MOTION_DDOT":0}]
